start=new Date('2023-06-09T00:00:00.000Z').valueOf();
sats=[{"GP_ID":"233469933","BSTAR":"-0.00002797000000","EPOCH":"2023-06-08T12:19:15.619872","SITE":"AFETR","EPHEMERIS_TYPE":"0","CENTER_NAME":"EARTH","SEMIMAJOR_AXIS":"6925.370","TLE_LINE2":"2 46333  53.0526 209.0324 0001080  85.7040 274.4072 15.06392979152808","REV_AT_EPOCH":"15280","PERIOD":"95.593","TIME_SYSTEM":"UTC","PERIAPSIS":"546.487","APOAPSIS":"547.983","CLASSIFICATION_TYPE":"U","ELEMENT_SET_NO":"999","OBJECT_ID":"2020-062J","COUNTRY_CODE":"US","REF_FRAME":"TEME","MEAN_MOTION_DDOT":"0.0000000000000","FILE":"3928007","RCS_SIZE":"LARGE","MEAN_MOTION":"15.06392979","MEAN_ANOMALY":"274.4072","RA_OF_ASC_NODE":"209.0324","NORAD_CAT_ID":"46333","MEAN_ELEMENT_THEORY":"SGP4","ARG_OF_PERICENTER":"85.7040","DECAY_DATE":null,"ECCENTRICITY":"0.00010800","OBJECT_TYPE":"PAYLOAD","INCLINATION":"53.0526","OBJECT_NAME":"STARLINK-1723","MEAN_MOTION_DOT":"-0.00000698","TLE_LINE1":"1 46333U 20062J   23159.51337523 -.00000698  00000-0 -27970-4 0  9992","LAUNCH_DATE":"2020-09-03"},{"BSTAR":"-0.00004236700000","SITE":"AFETR","EPOCH":"2023-06-08T09:10:52.868640","GP_ID":"233470181","SEMIMAJOR_AXIS":"6925.375","EPHEMERIS_TYPE":"0","CENTER_NAME":"EARTH","CLASSIFICATION_TYPE":"U","PERIAPSIS":"546.426","APOAPSIS":"548.055","COUNTRY_CODE":"US","ELEMENT_SET_NO":"999","OBJECT_ID":"2020-062K","TLE_LINE2":"2 46334  53.0523 189.8938 0001176  98.2550 261.8573 15.06391212153067","REV_AT_EPOCH":"15306","PERIOD":"95.593","TIME_SYSTEM":"UTC","RCS_SIZE":"LARGE","MEAN_ANOMALY":"261.8573","MEAN_MOTION":"15.06391212","MEAN_MOTION_DDOT":"0.0000000000000","FILE":"3928007","REF_FRAME":"TEME","MEAN_ELEMENT_THEORY":"SGP4","RA_OF_ASC_NODE":"189.8938","NORAD_CAT_ID":"46334","ARG_OF_PERICENTER":"98.2550","OBJECT_TYPE":"PAYLOAD","ECCENTRICITY":"0.00011760","DECAY_DATE":null,"MEAN_MOTION_DOT":"-0.00000912","TLE_LINE1":"1 46334U 20062K   23159.38255635 -.00000912  00000-0 -42367-4 0  9997","LAUNCH_DATE":"2020-09-03","INCLINATION":"53.0523","OBJECT_NAME":"STARLINK-1725"},{"CENTER_NAME":"EARTH","EPHEMERIS_TYPE":"0","SEMIMAJOR_AXIS":"6925.357","GP_ID":"233468431","EPOCH":"2023-06-08T13:01:43.375296","SITE":"AFETR","BSTAR":"0.00001074800000","REF_FRAME":"TEME","MEAN_MOTION_DDOT":"0.0000000000000","FILE":"3928007","MEAN_MOTION":"15.06397383","MEAN_ANOMALY":"268.7800","RCS_SIZE":"LARGE","TIME_SYSTEM":"UTC","PERIOD":"95.592","TLE_LINE2":"2 46335  53.0518 208.8975 0001181  91.3324 268.7800 15.06397383152810","REV_AT_EPOCH":"15281","ELEMENT_SET_NO":"999","OBJECT_ID":"2020-062L","COUNTRY_CODE":"US","APOAPSIS":"548.039","PERIAPSIS":"546.404","CLASSIFICATION_TYPE":"U","ARG_OF_PERICENTER":"91.3324","NORAD_CAT_ID":"46335","RA_OF_ASC_NODE":"208.8975","MEAN_ELEMENT_THEORY":"SGP4","OBJECT_NAME":"STARLINK-1727","INCLINATION":"53.0518","TLE_LINE1":"1 46335U 20062L   23159.54286314 -.00000121  00000-0  10748-4 0  9993","LAUNCH_DATE":"2020-09-03","MEAN_MOTION_DOT":"-0.00000121","ECCENTRICITY":"0.00011810","DECAY_DATE":null,"OBJECT_TYPE":"PAYLOAD"},{"EPHEMERIS_TYPE":"0","CENTER_NAME":"EARTH","SEMIMAJOR_AXIS":"6925.363","GP_ID":"233468681","BSTAR":"0.00011825000000","EPOCH":"2023-06-08T11:12:54.882432","SITE":"AFETR","REF_FRAME":"TEME","FILE":"3928007","MEAN_MOTION_DDOT":"0.0000000000000","RCS_SIZE":"LARGE","MEAN_MOTION":"15.06395385","MEAN_ANOMALY":"274.3550","PERIOD":"95.592","TLE_LINE2":"2 46336  53.0524 189.2382 0000986  85.7552 274.3550 15.06395385153078","REV_AT_EPOCH":"15307","TIME_SYSTEM":"UTC","APOAPSIS":"547.911","PERIAPSIS":"546.545","CLASSIFICATION_TYPE":"U","OBJECT_ID":"2020-062M","ELEMENT_SET_NO":"999","COUNTRY_CODE":"US","ARG_OF_PERICENTER":"85.7552","RA_OF_ASC_NODE":"189.2382","NORAD_CAT_ID":"46336","MEAN_ELEMENT_THEORY":"SGP4","INCLINATION":"53.0524","OBJECT_NAME":"STARLINK-1738","MEAN_MOTION_DOT":"0.00001480","LAUNCH_DATE":"2020-09-03","TLE_LINE1":"1 46336U 20062M   23159.46730188  .00001480  00000-0  11825-3 0  9992","ECCENTRICITY":"0.00009860","DECAY_DATE":null,"OBJECT_TYPE":"PAYLOAD"},{"BSTAR":"0.00016174000000","SITE":"AFETR","EPOCH":"2023-06-08T08:23:04.198560","GP_ID":"233469433","SEMIMAJOR_AXIS":"6925.374","EPHEMERIS_TYPE":"0","CENTER_NAME":"EARTH","CLASSIFICATION_TYPE":"U","APOAPSIS":"547.998","PERIAPSIS":"546.479","COUNTRY_CODE":"US","OBJECT_ID":"2020-062N","ELEMENT_SET_NO":"999","REV_AT_EPOCH":"15306","TLE_LINE2":"2 46337  53.0538 189.7651 0001097  72.7482 287.3627 15.06391831153060","PERIOD":"95.593","TIME_SYSTEM":"UTC","RCS_SIZE":"LARGE","MEAN_ANOMALY":"287.3627","MEAN_MOTION":"15.06391831","FILE":"3928007","MEAN_MOTION_DDOT":"0.0000000000000","REF_FRAME":"TEME","MEAN_ELEMENT_THEORY":"SGP4","RA_OF_ASC_NODE":"189.7651","NORAD_CAT_ID":"46337","ARG_OF_PERICENTER":"72.7482","OBJECT_TYPE":"PAYLOAD","ECCENTRICITY":"0.00010970","DECAY_DATE":null,"MEAN_MOTION_DOT":"0.00002128","LAUNCH_DATE":"2020-09-03","TLE_LINE1":"1 46337U 20062N   23159.34935415  .00002128  00000-0  16174-3 0  9992","INCLINATION":"53.0538","OBJECT_NAME":"STARLINK-1750"},{"NORAD_CAT_ID":"46338","RA_OF_ASC_NODE":"209.5411","MEAN_ELEMENT_THEORY":"SGP4","ARG_OF_PERICENTER":"92.1835","ECCENTRICITY":"0.00011610","DECAY_DATE":null,"OBJECT_TYPE":"PAYLOAD","OBJECT_NAME":"STARLINK-1752","INCLINATION":"53.0513","TLE_LINE1":"1 46338U 20062P   23159.39911404  .00000922  00000-0  80764-4 0  9997","LAUNCH_DATE":"2020-09-03","MEAN_MOTION_DOT":"0.00000922","GP_ID":"233469681","EPOCH":"2023-06-08T09:34:43.453056","SITE":"AFETR","BSTAR":"0.00008076400000","CENTER_NAME":"EARTH","EPHEMERIS_TYPE":"0","SEMIMAJOR_AXIS":"6925.366","TIME_SYSTEM":"UTC","TLE_LINE2":"2 46338  53.0513 209.5411 0001161  92.1835 267.9287 15.06394198152782","PERIOD":"95.593","REV_AT_EPOCH":"15278","OBJECT_ID":"2020-062P","ELEMENT_SET_NO":"999","COUNTRY_CODE":"US","PERIAPSIS":"546.427","APOAPSIS":"548.035","CLASSIFICATION_TYPE":"U","REF_FRAME":"TEME","MEAN_MOTION_DDOT":"0.0000000000000","FILE":"3928007","MEAN_MOTION":"15.06394198","MEAN_ANOMALY":"267.9287","RCS_SIZE":"LARGE"},{"CENTER_NAME":"EARTH","EPHEMERIS_TYPE":"0","SEMIMAJOR_AXIS":"6925.391","GP_ID":"233468932","EPOCH":"2023-06-08T08:57:34.784064","SITE":"AFETR","BSTAR":"0.00007866600000","REF_FRAME":"TEME","FILE":"3928007","MEAN_MOTION_DDOT":"0.0000000000000","MEAN_MOTION":"15.06386102","MEAN_ANOMALY":"273.0928","RCS_SIZE":"LARGE","TIME_SYSTEM":"UTC","PERIOD":"95.593","TLE_LINE2":"2 46340  53.0539 209.6681 0001121  87.0190 273.0928 15.06386102152771","REV_AT_EPOCH":"15277","ELEMENT_SET_NO":"999","OBJECT_ID":"2020-062R","COUNTRY_CODE":"US","PERIAPSIS":"546.480","APOAPSIS":"548.032","CLASSIFICATION_TYPE":"U","ARG_OF_PERICENTER":"87.0190","NORAD_CAT_ID":"46340","RA_OF_ASC_NODE":"209.6681","MEAN_ELEMENT_THEORY":"SGP4","OBJECT_NAME":"STARLINK-1759","INCLINATION":"53.0539","TLE_LINE1":"1 46340U 20062R   23159.37331926  .00000890  00000-0  78666-4 0  9995","LAUNCH_DATE":"2020-09-03","MEAN_MOTION_DOT":"0.00000890","DECAY_DATE":null,"ECCENTRICITY":"0.00011210","OBJECT_TYPE":"PAYLOAD"},{"ARG_OF_PERICENTER":"82.4758","MEAN_ELEMENT_THEORY":"SGP4","NORAD_CAT_ID":"46341","RA_OF_ASC_NODE":"189.6293","TLE_LINE1":"1 46341U 20062S   23159.37883843  .00000553  00000-0  55979-4 0  9994","LAUNCH_DATE":"2020-09-03","MEAN_MOTION_DOT":"0.00000553","OBJECT_NAME":"STARLINK-1760","INCLINATION":"53.0532","OBJECT_TYPE":"PAYLOAD","DECAY_DATE":null,"ECCENTRICITY":"0.00009640","SEMIMAJOR_AXIS":"6925.366","CENTER_NAME":"EARTH","EPHEMERIS_TYPE":"0","SITE":"AFETR","EPOCH":"2023-06-08T09:05:31.640352","BSTAR":"0.00005597900000","GP_ID":"233469182","MEAN_ANOMALY":"277.6340","MEAN_MOTION":"15.06394325","RCS_SIZE":"LARGE","MEAN_MOTION_DDOT":"0.0000000000000","FILE":"3928007","REF_FRAME":"TEME","COUNTRY_CODE":"US","ELEMENT_SET_NO":"999","OBJECT_ID":"2020-062S","CLASSIFICATION_TYPE":"U","PERIAPSIS":"546.563","APOAPSIS":"547.899","TIME_SYSTEM":"UTC","TLE_LINE2":"2 46341  53.0532 189.6293 0000964  82.4758 277.6340 15.06394325153072","REV_AT_EPOCH":"15307","PERIOD":"95.593"},{"SEMIMAJOR_AXIS":"6925.346","EPHEMERIS_TYPE":"0","CENTER_NAME":"EARTH","BSTAR":"0.00009918500000","SITE":"AFETR","EPOCH":"2023-06-08T13:22:56.910432","GP_ID":"233469934","RCS_SIZE":"LARGE","MEAN_ANOMALY":"257.5774","MEAN_MOTION":"15.06400936","MEAN_MOTION_DDOT":"0.0000000000000","FILE":"3928007","REF_FRAME":"TEME","CLASSIFICATION_TYPE":"U","APOAPSIS":"547.944","PERIAPSIS":"546.477","COUNTRY_CODE":"US","ELEMENT_SET_NO":"999","OBJECT_ID":"2020-062T","REV_AT_EPOCH":"15281","TLE_LINE2":"2 46342  53.0530 208.8341 0001059 102.5333 257.5774 15.06400936152813","PERIOD":"95.592","TIME_SYSTEM":"UTC","ARG_OF_PERICENTER":"102.5333","MEAN_ELEMENT_THEORY":"SGP4","RA_OF_ASC_NODE":"208.8341","NORAD_CAT_ID":"46342","MEAN_MOTION_DOT":"0.00001196","LAUNCH_DATE":"2020-09-03","TLE_LINE1":"1 46342U 20062T   23159.55760313  .00001196  00000-0  99185-4 0  9992","INCLINATION":"53.0530","OBJECT_NAME":"STARLINK-1762","OBJECT_TYPE":"PAYLOAD","DECAY_DATE":null,"ECCENTRICITY":"0.00010590"},{"REF_FRAME":"TEME","MEAN_MOTION_DDOT":"0.0000000000000","FILE":"3928007","RCS_SIZE":"LARGE","MEAN_MOTION":"15.06388266","MEAN_ANOMALY":"272.7644","PERIOD":"95.593","TLE_LINE2":"2 46343  53.0535 189.7498 0001102  87.3471 272.7644 15.06388266153065","REV_AT_EPOCH":"15306","TIME_SYSTEM":"UTC","PERIAPSIS":"546.486","APOAPSIS":"548.013","CLASSIFICATION_TYPE":"U","OBJECT_ID":"2020-062U","ELEMENT_SET_NO":"999","COUNTRY_CODE":"US","EPHEMERIS_TYPE":"0","CENTER_NAME":"EARTH","SEMIMAJOR_AXIS":"6925.385","GP_ID":"233470182","BSTAR":"0.00001175600000","EPOCH":"2023-06-08T08:28:22.713024","SITE":"AFETR","INCLINATION":"53.0535","OBJECT_NAME":"STARLINK-1764","MEAN_MOTION_DOT":"-0.00000106","TLE_LINE1":"1 46343U 20062U   23159.35304066 -.00000106  00000-0  11756-4 0  9999","LAUNCH_DATE":"2020-09-03","ECCENTRICITY":"0.00011020","DECAY_DATE":null,"OBJECT_TYPE":"PAYLOAD","ARG_OF_PERICENTER":"87.3471","RA_OF_ASC_NODE":"189.7498","NORAD_CAT_ID":"46343","MEAN_ELEMENT_THEORY":"SGP4"}];
